[{"OBJECT_NAME":"GPS BIIF-11","OBJECT_ID":"2015-062A","EPOCH":"2026-03-04T13:49:40.002816","MEAN_MOTION":2.00567082,"ECCENTRICITY":0.01114535,"INCLINATION":56.893,"RA_OF_ASC_NODE":34.8413,"ARG_OF_PERICENTER":231.4983,"MEAN_ANOMALY":127.485,"EPHEMERIS_TYPE":0,"CLASSIFICATION_TYPE":"U","NORAD_CAT_ID":41019,"ELEMENT_SET_NO":999,"REV_AT_EPOCH":7573,"BSTAR":0,"MEAN_MOTION_DOT":-7.9e-7,"MEAN_MOTION_DDOT":0},{"OBJECT_NAME":"ELEKTRO-L 2","OBJECT_ID":"2015-074A","EPOCH":"2026-03-05T07:04:57.569664","MEAN_MOTION":1.00270976,"ECCENTRICITY":0.00034131,"INCLINATION":6.4333,"RA_OF_ASC_NODE":71.8021,"ARG_OF_PERICENTER":238.5441,"MEAN_ANOMALY":304.414,"EPHEMERIS_TYPE":0,"CLASSIFICATION_TYPE":"U","NORAD_CAT_ID":41105,"ELEMENT_SET_NO":999,"REV_AT_EPOCH":3746,"BSTAR":0,"MEAN_MOTION_DOT":-1.23e-6,"MEAN_MOTION_DDOT":0},{"OBJECT_NAME":"GSAT0209 (GALILEO 12)","OBJECT_ID":"2015-079A","EPOCH":"2026-03-04T00:58:01.778304","MEAN_MOTION":1.70474529,"ECCENTRICITY":0.0004747,"INCLINATION":55.759,"RA_OF_ASC_NODE":104.1453,"ARG_OF_PERICENTER":323.4357,"MEAN_ANOMALY":36.6173,"EPHEMERIS_TYPE":0,"CLASSIFICATION_TYPE":"U","NORAD_CAT_ID":41174,"ELEMENT_SET_NO":999,"REV_AT_EPOCH":6298,"BSTAR":0,"MEAN_MOTION_DOT":1.3e-7,"MEAN_MOTION_DDOT":0},{"OBJECT_NAME":"GSAT0208 (GALILEO 11)","OBJECT_ID":"2015-079B","EPOCH":"2026-03-03T02:05:47.447808","MEAN_MOTION":1.70474318,"ECCENTRICITY":0.00041639,"INCLINATION":55.7569,"RA_OF_ASC_NODE":104.1685,"ARG_OF_PERICENTER":323.7694,"MEAN_ANOMALY":36.289,"EPHEMERIS_TYPE":0,"CLASSIFICATION_TYPE":"U","NORAD_CAT_ID":41175,"ELEMENT_SET_NO":999,"REV_AT_EPOCH":6338,"BSTAR":0,"MEAN_MOTION_DOT":1.5e-7,"MEAN_MOTION_DDOT":0},{"OBJECT_NAME":"GPS BIIF-12","OBJECT_ID":"2016-007A","EPOCH":"2026-03-05T03:50:35.213856","MEAN_MOTION":2.00556727,"ECCENTRICITY":0.00954531,"INCLINATION":55.4561,"RA_OF_ASC_NODE":93.5827,"ARG_OF_PERICENTER":246.0235,"MEAN_ANOMALY":113.0379,"EPHEMERIS_TYPE":0,"CLASSIFICATION_TYPE":"U","NORAD_CAT_ID":41328,"ELEMENT_SET_NO":999,"REV_AT_EPOCH":7375,"BSTAR":0,"MEAN_MOTION_DOT":4.0e-8,"MEAN_MOTION_DDOT":0},{"OBJECT_NAME":"GSAT0211 (GALILEO 14)","OBJECT_ID":"2016-030A","EPOCH":"2026-03-02T14:59:35.994624","MEAN_MOTION":1.70473766,"ECCENTRICITY":0.00036317,"INCLINATION":55.1322,"RA_OF_ASC_NODE":224.6224,"ARG_OF_PERICENTER":25.7212,"MEAN_ANOMALY":334.2388,"EPHEMERIS_TYPE":0,"CLASSIFICATION_TYPE":"U","NORAD_CAT_ID":41549,"ELEMENT_SET_NO":999,"REV_AT_EPOCH":6085,"BSTAR":0,"MEAN_MOTION_DOT":1.1e-7,"MEAN_MOTION_DDOT":0},{"OBJECT_NAME":"GSAT0210 (GALILEO 13)","OBJECT_ID":"2016-030B","EPOCH":"2026-03-04T15:24:06.592608","MEAN_MOTION":1.70473947,"ECCENTRICITY":0.00011974,"INCLINATION":55.1287,"RA_OF_ASC_NODE":224.5652,"ARG_OF_PERICENTER":194.9526,"MEAN_ANOMALY":164.9809,"EPHEMERIS_TYPE":0,"CLASSIFICATION_TYPE":"U","NORAD_CAT_ID":41550,"ELEMENT_SET_NO":999,"REV_AT_EPOCH":6088,"BSTAR":0,"MEAN_MOTION_DOT":1.2e-7,"MEAN_MOTION_DDOT":0},{"OBJECT_NAME":"INSAT-3DR","OBJECT_ID":"2016-054A","EPOCH":"2026-03-05T01:31:11.726688","MEAN_MOTION":1.00272506,"ECCENTRICITY":0.0013197,"INCLINATION":0.0489,"RA_OF_ASC_NODE":96.2317,"ARG_OF_PERICENTER":185.6547,"MEAN_ANOMALY":337.6931,"EPHEMERIS_TYPE":0,"CLASSIFICATION_TYPE":"U","NORAD_CAT_ID":41752,"ELEMENT_SET_NO":999,"REV_AT_EPOCH":3477,"BSTAR":0,"MEAN_MOTION_DOT":-8.6e-7,"MEAN_MOTION_DDOT":0},{"OBJECT_NAME":"GSAT0207 (GALILEO 15)","OBJECT_ID":"2016-069A","EPOCH":"2026-02-28T05:27:34.324704","MEAN_MOTION":1.70474383,"ECCENTRICITY":0.00050316,"INCLINATION":55.4267,"RA_OF_ASC_NODE":104.1007,"ARG_OF_PERICENTER":309.1503,"MEAN_ANOMALY":50.8842,"EPHEMERIS_TYPE":0,"CLASSIFICATION_TYPE":"U","NORAD_CAT_ID":41859,"ELEMENT_SET_NO":999,"REV_AT_EPOCH":5754,"BSTAR":0,"MEAN_MOTION_DOT":8.0e-8,"MEAN_MOTION_DDOT":0},{"OBJECT_NAME":"GSAT0212 (GALILEO 16)","OBJECT_ID":"2016-069B","EPOCH":"2026-03-03T00:20:06.105120","MEAN_MOTION":1.70474657,"ECCENTRICITY":0.0003622,"INCLINATION":55.4261,"RA_OF_ASC_NODE":104.0186,"ARG_OF_PERICENTER":335.7588,"MEAN_ANOMALY":24.3106,"EPHEMERIS_TYPE":0,"CLASSIFICATION_TYPE":"U","NORAD_CAT_ID":41860,"ELEMENT_SET_NO":999,"REV_AT_EPOCH":5784,"BSTAR":0,"MEAN_MOTION_DOT":1.4e-7,"MEAN_MOTION_DDOT":0},{"OBJECT_NAME":"GSAT0213 (GALILEO 17)","OBJECT_ID":"2016-069C","EPOCH":"2026-02-27T06:36:27.411264","MEAN_MOTION":1.70474834,"ECCENTRICITY":0.00051302,"INCLINATION":55.426,"RA_OF_ASC_NODE":104.1303,"ARG_OF_PERICENTER":291.6331,"MEAN_ANOMALY":68.3872,"EPHEMERIS_TYPE":0,"CLASSIFICATION_TYPE":"U","NORAD_CAT_ID":41861,"ELEMENT_SET_NO":999,"REV_AT_EPOCH":5764,"BSTAR":0,"MEAN_MOTION_DOT":4.0e-8,"MEAN_MOTION_DDOT":0},{"OBJECT_NAME":"GSAT0214 (GALILEO 18)","OBJECT_ID":"2016-069D","EPOCH":"2026-02-28T00:11:27.536640","MEAN_MOTION":1.70474701,"ECCENTRICITY":0.00041329,"INCLINATION":55.425,"RA_OF_ASC_NODE":104.1026,"ARG_OF_PERICENTER":296.1582,"MEAN_ANOMALY":63.8775,"EPHEMERIS_TYPE":0,"CLASSIFICATION_TYPE":"U","NORAD_CAT_ID":41862,"ELEMENT_SET_NO":999,"REV_AT_EPOCH":5778,"BSTAR":0,"MEAN_MOTION_DOT":7.0e-8,"MEAN_MOTION_DDOT":0},{"OBJECT_NAME":"GOES 16","OBJECT_ID":"2016-071A","EPOCH":"2026-03-05T06:39:15.034176","MEAN_MOTION":1.00271815,"ECCENTRICITY":0.00024644,"INCLINATION":0.1401,"RA_OF_ASC_NODE":89.6705,"ARG_OF_PERICENTER":221.2947,"MEAN_ANOMALY":207.1543,"EPHEMERIS_TYPE":0,"CLASSIFICATION_TYPE":"U","NORAD_CAT_ID":41866,"ELEMENT_SET_NO":999,"REV_AT_EPOCH":3406,"BSTAR":0,"MEAN_MOTION_DOT":-9.9e-7,"MEAN_MOTION_DDOT":0},{"OBJECT_NAME":"GSAT-17","OBJECT_ID":"2017-040B","EPOCH":"2026-03-05T00:03:59.873184","MEAN_MOTION":1.00269919,"ECCENTRICITY":0.00049805,"INCLINATION":0.0397,"RA_OF_ASC_NODE":299.9445,"ARG_OF_PERICENTER":347.8839,"MEAN_ANOMALY":329.4053,"EPHEMERIS_TYPE":0,"CLASSIFICATION_TYPE":"U","NORAD_CAT_ID":42815,"ELEMENT_SET_NO":999,"REV_AT_EPOCH":3174,"BSTAR":0,"MEAN_MOTION_DOT":-2.67e-6,"MEAN_MOTION_DDOT":0},{"OBJECT_NAME":"GSAT0215 (GALILEO 19)","OBJECT_ID":"2017-079A","EPOCH":"2026-03-03T10:20:26.274624","MEAN_MOTION":1.70474475,"ECCENTRICITY":6.318e-5,"INCLINATION":55.108,"RA_OF_ASC_NODE":224.4135,"ARG_OF_PERICENTER":13.1955,"MEAN_ANOMALY":346.7446,"EPHEMERIS_TYPE":0,"CLASSIFICATION_TYPE":"U","NORAD_CAT_ID":43055,"ELEMENT_SET_NO":999,"REV_AT_EPOCH":5118,"BSTAR":0,"MEAN_MOTION_DOT":1.0e-7,"MEAN_MOTION_DDOT":0},{"OBJECT_NAME":"GSAT0216 (GALILEO 20)","OBJECT_ID":"2017-079B","EPOCH":"2026-03-01T23:05:47.137632","MEAN_MOTION":1.70474524,"ECCENTRICITY":0.00016887,"INCLINATION":55.1088,"RA_OF_ASC_NODE":224.454,"ARG_OF_PERICENTER":322.1798,"MEAN_ANOMALY":37.7539,"EPHEMERIS_TYPE":0,"CLASSIFICATION_TYPE":"U","NORAD_CAT_ID":43056,"ELEMENT_SET_NO":999,"REV_AT_EPOCH":5117,"BSTAR":0,"MEAN_MOTION_DOT":1.3e-7,"MEAN_MOTION_DDOT":0},{"OBJECT_NAME":"GSAT0217 (GALILEO 21)","OBJECT_ID":"2017-079C","EPOCH":"2026-03-03T08:33:00.443232","MEAN_MOTION":1.70474491,"ECCENTRICITY":0.00021069,"INCLINATION":55.1084,"RA_OF_ASC_NODE":224.4135,"ARG_OF_PERICENTER":356.8681,"MEAN_ANOMALY":3.0693,"EPHEMERIS_TYPE":0,"CLASSIFICATION_TYPE":"U","NORAD_CAT_ID":43057,"ELEMENT_SET_NO":999,"REV_AT_EPOCH":5118,"BSTAR":0,"MEAN_MOTION_DOT":9.0e-8,"MEAN_MOTION_DDOT":0}]
